[{"OBJECT_NAME":"GHGSAT-C7","OBJECT_ID":"2023-054AH","EPOCH":"2026-03-09T23:00:36.628128","MEAN_MOTION":15.47649027,"ECCENTRICITY":0.00094471,"INCLINATION":97.3074,"RA_OF_ASC_NODE":336.1963,"ARG_OF_PERICENTER":47.2548,"MEAN_ANOMALY":312.9496,"EPHEMERIS_TYPE":0,"CLASSIFICATION_TYPE":"U","NORAD_CAT_ID":56209,"ELEMENT_SET_NO":999,"REV_AT_EPOCH":16303,"BSTAR":0.00028683651,"MEAN_MOTION_DOT":0.00014749,"MEAN_MOTION_DDOT":0},{"OBJECT_NAME":"PSLV R\/B","OBJECT_ID":"2019-081B","EPOCH":"2026-03-09T21:41:57.489504","MEAN_MOTION":15.51275021,"ECCENTRICITY":0.00222604,"INCLINATION":97.1897,"RA_OF_ASC_NODE":108.7513,"ARG_OF_PERICENTER":106.0396,"MEAN_ANOMALY":254.331,"EPHEMERIS_TYPE":0,"CLASSIFICATION_TYPE":"U","NORAD_CAT_ID":44805,"ELEMENT_SET_NO":999,"REV_AT_EPOCH":34890,"BSTAR":0.00050111254,"MEAN_MOTION_DOT":0.00029651,"MEAN_MOTION_DDOT":0}]
